[
  {
    "OBJECT_NAME": "STARLINK-11423 [DTC]",
    "OBJECT_ID": "24209M",
    "EPOCH": "2025-11-11T01:07:17.033952",
    "MEAN_MOTION": 15.69783978,
    "ECCENTRICITY": 0.0001562,
    "INCLINATION": 53.158,
    "RA_OF_ASC_NODE": 236.1344,
    "ARG_OF_PERICENTER": 68.3012,
    "MEAN_ANOMALY": 291.8172,
    "EPHEMERIS_TYPE": 0,
    "CLASSIFICATION_TYPE": "U",
    "NORAD_CAT_ID": 61950,
    "ELEMENT_SET_NO": 999,
    "REV_AT_EPOCH": 5808,
    "BSTAR": 0.0013854,
    "MEAN_MOTION_DOT": 0.00171288,
    "MEAN_MOTION_DDOT": 0.0,
    "TLE_LINE1": "1 61950U 24209M   25315.04672493  .00171288  00000+0  13854-2 0  9998",
    "TLE_LINE2": "2 61950  53.1580 236.1344 0001562  68.3012 291.8172 15.69783978 58086",
    "COMMENT": "Grouped by shell and plane from TLE"
  },
  {
    "OBJECT_NAME": "STARLINK-11395 [DTC]",
    "OBJECT_ID": "24209N",
    "EPOCH": "2025-11-11T02:31:53.869440",
    "MEAN_MOTION": 15.69783379,
    "ECCENTRICITY": 0.0001654,
    "INCLINATION": 53.1573,
    "RA_OF_ASC_NODE": 235.7821,
    "ARG_OF_PERICENTER": 122.3783,
    "MEAN_ANOMALY": 237.7395,
    "EPHEMERIS_TYPE": 0,
    "CLASSIFICATION_TYPE": "U",
    "NORAD_CAT_ID": 61951,
    "ELEMENT_SET_NO": 999,
    "REV_AT_EPOCH": 5805,
    "BSTAR": 0.0011566,
    "MEAN_MOTION_DOT": 0.00142394,
    "MEAN_MOTION_DDOT": 0.0,
    "TLE_LINE1": "1 61951U 24209N   25315.10548460  .00142394  00000+0  11566-2 0  9996",
    "TLE_LINE2": "2 61951  53.1573 235.7821 0001654 122.3783 237.7395 15.69783379 58050",
    "COMMENT": "Grouped by shell and plane from TLE"
  },
  {
    "OBJECT_NAME": "STARLINK-11629 [DTC]",
    "OBJECT_ID": "25039A",
    "EPOCH": "2025-11-11T03:25:15.503520",
    "MEAN_MOTION": 15.70932946,
    "ECCENTRICITY": 0.0002156,
    "INCLINATION": 42.9995,
    "RA_OF_ASC_NODE": 231.1808,
    "ARG_OF_PERICENTER": 278.9202,
    "MEAN_ANOMALY": 81.1421,
    "EPHEMERIS_TYPE": 0,
    "CLASSIFICATION_TYPE": "U",
    "NORAD_CAT_ID": 63104,
    "ELEMENT_SET_NO": 999,
    "REV_AT_EPOCH": 4097,
    "BSTAR": 0.0019989,
    "MEAN_MOTION_DOT": 0.0026544,
    "MEAN_MOTION_DDOT": 0.0,
    "TLE_LINE1": "1 63104U 25039A   25315.14254055  .00265440  00000+0  19989-2 0  9993",
    "TLE_LINE2": "2 63104  42.9995 231.1808 0002156 278.9202  81.1421 15.70932946 40974",
    "COMMENT": "Grouped by shell and plane from TLE"
  },
  {
    "OBJECT_NAME": "STARLINK-11624 [DTC]",
    "OBJECT_ID": "25039B",
    "EPOCH": "2025-11-11T04:27:44.418528",
    "MEAN_MOTION": 15.70887152,
    "ECCENTRICITY": 0.0001325,
    "INCLINATION": 43.0011,
    "RA_OF_ASC_NODE": 231.5296,
    "ARG_OF_PERICENTER": 254.3024,
    "MEAN_ANOMALY": 105.7697,
    "EPHEMERIS_TYPE": 0,
    "CLASSIFICATION_TYPE": "U",
    "NORAD_CAT_ID": 63105,
    "ELEMENT_SET_NO": 999,
    "REV_AT_EPOCH": 4097,
    "BSTAR": 0.0017109,
    "MEAN_MOTION_DOT": 0.00225592,
    "MEAN_MOTION_DDOT": 0.0,
    "TLE_LINE1": "1 63105U 25039B   25315.18593077  .00225592  00000+0  17109-2 0  9994",
    "TLE_LINE2": "2 63105  43.0011 231.5296 0001325 254.3024 105.7697 15.70887152 40974",
    "COMMENT": "Grouped by shell and plane from TLE"
  },
  {
    "OBJECT_NAME": "STARLINK-11584 [DTC]",
    "OBJECT_ID": "25039C",
    "EPOCH": "2025-11-11T02:54:51.922656",
    "MEAN_MOTION": 15.70856657,
    "ECCENTRICITY": 0.0001941,
    "INCLINATION": 43.0007,
    "RA_OF_ASC_NODE": 231.9042,
    "ARG_OF_PERICENTER": 259.3236,
    "MEAN_ANOMALY": 100.7413,
    "EPHEMERIS_TYPE": 0,
    "CLASSIFICATION_TYPE": "U",
    "NORAD_CAT_ID": 63106,
    "ELEMENT_SET_NO": 999,
    "REV_AT_EPOCH": 4096,
    "BSTAR": 0.0020197,
    "MEAN_MOTION_DOT": 0.00267409,
    "MEAN_MOTION_DDOT": 0.0,
    "TLE_LINE1": "1 63106U 25039C   25315.12143429  .00267409  00000+0  20197-2 0  9995",
    "TLE_LINE2": "2 63106  43.0007 231.9042 0001941 259.3236 100.7413 15.70856657 40963",
    "COMMENT": "Grouped by shell and plane from TLE"
  },
  {
    "OBJECT_NAME": "STARLINK-11627 [DTC]",
    "OBJECT_ID": "25039D",
    "EPOCH": "2025-11-11T03:40:33.236544",
    "MEAN_MOTION": 15.71092185,
    "ECCENTRICITY": 0.0002918,
    "INCLINATION": 42.9989,
    "RA_OF_ASC_NODE": 231.2641,
    "ARG_OF_PERICENTER": 275.0352,
    "MEAN_ANOMALY": 85.0182,
    "EPHEMERIS_TYPE": 0,
    "CLASSIFICATION_TYPE": "U",
    "NORAD_CAT_ID": 63107,
    "ELEMENT_SET_NO": 999,
    "REV_AT_EPOCH": 4097,
    "BSTAR": 0.0019741,
    "MEAN_MOTION_DOT": 0.00263852,
    "MEAN_MOTION_DDOT": 0.0,
    "TLE_LINE1": "1 63107U 25039D   25315.15316246  .00263852  00000+0  19741-2 0  9999",
    "TLE_LINE2": "2 63107  42.9989 231.2641 0002918 275.0352  85.0182 15.71092185 40976",
    "COMMENT": "Grouped by shell and plane from TLE"
  },
  {
    "OBJECT_NAME": "STARLINK-11632 [DTC]",
    "OBJECT_ID": "25039E",
    "EPOCH": "2025-11-11T02:31:56.089056",
    "MEAN_MOTION": 15.70923184,
    "ECCENTRICITY": 0.0001728,
    "INCLINATION": 42.9994,
    "RA_OF_ASC_NODE": 231.7755,
    "ARG_OF_PERICENTER": 290.4045,
    "MEAN_ANOMALY": 69.6636,
    "EPHEMERIS_TYPE": 0,
    "CLASSIFICATION_TYPE": "U",
    "NORAD_CAT_ID": 63108,
    "ELEMENT_SET_NO": 999,
    "REV_AT_EPOCH": 4096,
    "BSTAR": 0.0025375,
    "MEAN_MOTION_DOT": 0.00340007,
    "MEAN_MOTION_DDOT": 0.0,
    "TLE_LINE1": "1 63108U 25039E   25315.10551029  .00340007  00000+0  25375-2 0  9993",
    "TLE_LINE2": "2 63108  42.9994 231.7755 0001728 290.4045  69.6636 15.70923184 40964",
    "COMMENT": "Grouped by shell and plane from TLE"
  },
  {
    "OBJECT_NAME": "STARLINK-11625 [DTC]",
    "OBJECT_ID": "25039F",
    "EPOCH": "2025-11-11T08:00:03.000384",
    "MEAN_MOTION": 15.70787518,
    "ECCENTRICITY": 0.0001455,
    "INCLINATION": 43.0,
    "RA_OF_ASC_NODE": 230.4769,
    "ARG_OF_PERICENTER": 272.5522,
    "MEAN_ANOMALY": 267.666,
    "EPHEMERIS_TYPE": 0,
    "CLASSIFICATION_TYPE": "U",
    "NORAD_CAT_ID": 63109,
    "ELEMENT_SET_NO": 999,
    "REV_AT_EPOCH": 600,
    "BSTAR": 0.0,
    "MEAN_MOTION_DOT": -5.819e-05,
    "MEAN_MOTION_DDOT": 0.0,
    "TLE_LINE1": "1 63109U 25039F   25315.33336806 -.00005819  00000+0 -41977-4 0  9992",
    "TLE_LINE2": "2 63109  43.0000 230.4769 0001455 272.5522 267.6660 15.70787518  6007",
    "COMMENT": "Grouped by shell and plane from TLE"
  },
  {
    "OBJECT_NAME": "STARLINK-11601 [DTC]",
    "OBJECT_ID": "25039G",
    "EPOCH": "2025-11-11T03:48:12.630528",
    "MEAN_MOTION": 15.70957139,
    "ECCENTRICITY": 0.0001139,
    "INCLINATION": 42.9995,
    "RA_OF_ASC_NODE": 231.3057,
    "ARG_OF_PERICENTER": 291.2959,
    "MEAN_ANOMALY": 68.7787,
    "EPHEMERIS_TYPE": 0,
    "CLASSIFICATION_TYPE": "U",
    "NORAD_CAT_ID": 63110,
    "ELEMENT_SET_NO": 999,
    "REV_AT_EPOCH": 4097,
    "BSTAR": 0.0019097,
    "MEAN_MOTION_DOT": 0.00253455,
    "MEAN_MOTION_DDOT": 0.0,
    "TLE_LINE1": "1 63110U 25039G   25315.15847952  .00253455  00000+0  19097-2 0  9998",
    "TLE_LINE2": "2 63110  42.9995 231.3057 0001139 291.2959  68.7787 15.70957139 40973",
    "COMMENT": "Grouped by shell and plane from TLE"
  },
  {
    "OBJECT_NAME": "STARLINK-11630 [DTC]",
    "OBJECT_ID": "25039H",
    "EPOCH": "2025-11-11T02:47:12.897600",
    "MEAN_MOTION": 15.70913033,
    "ECCENTRICITY": 0.000289,
    "INCLINATION": 43.002,
    "RA_OF_ASC_NODE": 231.857,
    "ARG_OF_PERICENTER": 255.7349,
    "MEAN_ANOMALY": 104.3197,
    "EPHEMERIS_TYPE": 0,
    "CLASSIFICATION_TYPE": "U",
    "NORAD_CAT_ID": 63111,
    "ELEMENT_SET_NO": 999,
    "REV_AT_EPOCH": 4096,
    "BSTAR": 0.0018748,
    "MEAN_MOTION_DOT": 0.0024821,
    "MEAN_MOTION_DDOT": 0.0,
    "TLE_LINE1": "1 63111U 25039H   25315.11612150  .00248210  00000+0  18748-2 0  9990",
    "TLE_LINE2": "2 63111  43.0020 231.8570 0002890 255.7349 104.3197 15.70913033 40969",
    "COMMENT": "Grouped by shell and plane from TLE"
  },
  {
    "OBJECT_NAME": "STARLINK-11590 [DTC]",
    "OBJECT_ID": "25039J",
    "EPOCH": "2025-11-11T04:34:04.327104",
    "MEAN_MOTION": 15.70870722,
    "ECCENTRICITY": 0.0001047,
    "INCLINATION": 43.0007,
    "RA_OF_ASC_NODE": 231.5622,
    "ARG_OF_PERICENTER": 289.3403,
    "MEAN_ANOMALY": 70.7352,
    "EPHEMERIS_TYPE": 0,
    "CLASSIFICATION_TYPE": "U",
    "NORAD_CAT_ID": 63112,
    "ELEMENT_SET_NO": 999,
    "REV_AT_EPOCH": 4097,
    "BSTAR": 0.0014147,
    "MEAN_MOTION_DOT": 0.00185417,
    "MEAN_MOTION_DDOT": 0.0,
    "TLE_LINE1": "1 63112U 25039J   25315.19032786  .00185417  00000+0  14147-2 0  9998",
    "TLE_LINE2": "2 63112  43.0007 231.5622 0001047 289.3403  70.7352 15.70870722 40974",
    "COMMENT": "Grouped by shell and plane from TLE"
  },
  {
    "OBJECT_NAME": "STARLINK-11598 [DTC]",
    "OBJECT_ID": "25039K",
    "EPOCH": "2025-11-11T05:27:24.283296",
    "MEAN_MOTION": 15.70853892,
    "ECCENTRICITY": 0.0001193,
    "INCLINATION": 43.0008,
    "RA_OF_ASC_NODE": 230.9622,
    "ARG_OF_PERICENTER": 286.5009,
    "MEAN_ANOMALY": 73.5728,
    "EPHEMERIS_TYPE": 0,
    "CLASSIFICATION_TYPE": "U",
    "NORAD_CAT_ID": 63113,
    "ELEMENT_SET_NO": 999,
    "REV_AT_EPOCH": 4098,
    "BSTAR": 0.0021352,
    "MEAN_MOTION_DOT": 0.00283236,
    "MEAN_MOTION_DDOT": 0.0,
    "TLE_LINE1": "1 63113U 25039K   25315.22736439  .00283236  00000+0  21352-2 0  9993",
    "TLE_LINE2": "2 63113  43.0008 230.9622 0001193 286.5009  73.5728 15.70853892 40980",
    "COMMENT": "Grouped by shell and plane from TLE"
  },
  {
    "OBJECT_NAME": "STARLINK-11600 [DTC]",
    "OBJECT_ID": "25039L",
    "EPOCH": "2025-11-11T03:32:54.163104",
    "MEAN_MOTION": 15.70921285,
    "ECCENTRICITY": 0.0002552,
    "INCLINATION": 42.9988,
    "RA_OF_ASC_NODE": 231.2177,
    "ARG_OF_PERICENTER": 262.7307,
    "MEAN_ANOMALY": 97.3271,
    "EPHEMERIS_TYPE": 0,
    "CLASSIFICATION_TYPE": "U",
    "NORAD_CAT_ID": 63114,
    "ELEMENT_SET_NO": 999,
    "REV_AT_EPOCH": 4097,
    "BSTAR": 0.0019803,
    "MEAN_MOTION_DOT": 0.00262752,
    "MEAN_MOTION_DDOT": 0.0,
    "TLE_LINE1": "1 63114U 25039L   25315.14784911  .00262752  00000+0  19803-2 0  9991",
    "TLE_LINE2": "2 63114  42.9988 231.2177 0002552 262.7307  97.3271 15.70921285 40970",
    "COMMENT": "Grouped by shell and plane from TLE"
  }
]